IRIDIUM 155             
1 43573U 18061E   23134.14016617  .00000345  00000+0  11616-3 0  9996
2 43573  86.3991 168.9767 0002587  93.3319 266.8172 14.34217546251393
IRIDIUM 154             
1 43574U 18061F   23133.84206777  .00000336  00000+0  11288-3 0  9996
2 43574  86.3996 169.1797 0002168  96.4422 263.7021 14.34215809251398
IRIDIUM 163             
1 43575U 18061G   23133.82303645  .00000135  00000+0  41295-4 0  9996
2 43575  86.3996 169.1378 0002124  91.6300 268.5139 14.34219185251369
IRIDIUM 156             
1 43576U 18061H   23133.79766857  .00000204  00000+0  65723-4 0  9990
2 43576  86.3991 169.1543 0002568  88.6199 271.5291 14.34214573251351
IRIDIUM 164             
1 43577U 18061J   23133.84840656  .00000343  00000+0  11526-3 0  9992
2 43577  86.3994 169.1560 0002168  90.1886 269.9558 14.34218746251400
IRIDIUM 159             
1 43578U 18061K   23133.60739006  .00000362  00000+0  12234-3 0  9991
2 43578  86.3995 169.2174 0002315  94.7755 265.3705 14.34218121251336
IRIDIUM 180             
1 43922U 19002A   23133.88595903  .00000421  00000+0  14308-3 0  9996
2 43922  86.3934 106.0068 0002160  86.5877 273.5566 14.34220031226987
IRIDIUM 176             
1 43923U 19002B   23133.99196789  .00001472  00000+0  22952-3 0  9999
2 43923  86.6068 106.0024 0002584  87.8822 272.2691 14.72244863232966
IRIDIUM 168             
1 43924U 19002C   23133.39123178  .00000464  00000+0  15860-3 0  9996
2 43924  86.3937 106.2590 0002191  88.4100 271.7346 14.34221835226897
IRIDIUM 173             
1 43925U 19002D   23133.65762515  .00000427  00000+0  14550-3 0  9994
2 43925  86.3933 106.0827 0002119  89.0172 271.1266 14.34217621226917
IRIDIUM 169             
1 43926U 19002E   23133.76229671  .00000345  00000+0  10626-3 0  9997
2 43926  86.4204 137.6516 0005951 101.2167 258.9700 14.38604865227701
IRIDIUM 172             
1 43927U 19002F   23133.86058767  .00000034  00000+0  50961-5 0  9998
2 43927  86.3936 106.0023 0002262  88.9991 271.1464 14.34218031226956
IRIDIUM 175             
1 43928U 19002G   23133.91753145  .00001518  00000+0  23674-3 0  9994
2 43928  86.1485 101.7861 0002403  87.5651 272.5841 14.72240300232947
IRIDIUM 171             
1 43929U 19002H   23133.91132746  .00000418  00000+0  14207-3 0  9993
2 43929  86.3944 106.1622 0002114  88.7236 271.4202 14.34217902226958
IRIDIUM 170             
1 43930U 19002J   23133.86219341  .00001473  00000+0  22983-3 0  9998
2 43930  86.6065 106.0616 0002452  89.5237 270.6261 14.72238640232951
IRIDIUM 167             
1 43931U 19002K   23133.34683086  .00000470  00000+0  16074-3 0  9993
2 43931  86.3934 106.2296 0002051  87.1405 273.0026 14.34219891226871
